{
  "norad_id": 67842,
  "name": "STARLINK-36653",
  "history": [
    {
      "epoch": "2026-03-28T22:00:01.999584Z",
      "apogee_km": 484.46810539343915,
      "perigee_km": 481.53044128664624,
      "latitude_deg": 42.07844833597255,
      "longitude_deg": 76.35057568279095,
      "height_km": 487.1336279440809,
      "semi_major_axis_km": 6861.136273340043,
      "eccentricity": 0.00021408,
      "inclination_deg": 43.0004,
      "raan_deg": 158.3522,
      "arg_perigee_deg": 292.2658,
      "mean_anomaly_deg": 146.1441,
      "mean_motion_rev_day": 15.27596639
    },
    {
      "epoch": "2026-03-29T04:00:01.999584Z",
      "apogee_km": 484.34406723111624,
      "perigee_km": 481.87813466363696,
      "latitude_deg": 10.089535358847918,
      "longitude_deg": -78.70529236144883,
      "height_km": 481.992667032994,
      "semi_major_axis_km": 6861.248100947377,
      "eccentricity": 0.0001797,
      "inclination_deg": 43.0001,
      "raan_deg": 156.9409,
      "arg_perigee_deg": 291.6705,
      "mean_anomaly_deg": 83.1882,
      "mean_motion_rev_day": 15.27559293
    }
  ]
}